ONEWEB-0628             
1 55169U 23004AF  24282.03547533 -.00000195  00000+0 -57822-3 0  9996
2 55169  87.8851 113.5512 0000778  75.4994 284.6221 13.12444332 87088
ONEWEB-0629             
1 55170U 23004AG  24282.05618719  .00000013  00000+0 -65943-6 0  9999
2 55170  87.9087 128.8058 0001130  90.6093 269.5168 13.17652416 86314
ONEWEB-0631             
1 55171U 23004AH  24282.22508506  .00000288  00000+0  69673-3 0  9995
2 55171  87.9062  98.2134 0001842  68.7900 291.3429 13.18688042 88361
ONEWEB-0709             
1 55172U 23004AJ  24281.88715402 -.00000497  00000+0 -14395-2 0  9996
2 55172  87.8936 144.0660 0002532  66.6456 293.4938 13.11414655 84965
ONEWEB-0710             
1 55173U 23004AK  24281.84272356 -.00000242  00000+0 -65719-3 0  9994
2 55173  87.9101 128.8706 0001441  78.2593 281.8700 13.17644824 86285
ONEWEB-0711             
1 55174U 23004AL  24281.85833999  .00000162  00000+0  42046-3 0  9999
2 55174  87.8931 144.0408 0000980  45.1879 314.9328 13.11416356 84937
ONEWEB-0713             
1 55175U 23004AM  24281.87698717 -.00000449  00000+0 -13039-2 0  9998
2 55175  87.8934 144.0454 0001278  70.0040 290.1226 13.11417283 84910
ONEWEB-0715             
1 55176U 23004AN  24281.87189963 -.00000348  00000+0 -10184-2 0  9993
2 55176  87.8930 144.0465 0001821  66.6132 293.5187 13.11414112 84951
